STARLINK-37794          
1 69310U 26119Q   26165.58335648 -.02313304  00000+0 -19650-1 0  9999
2 69310  97.2846 191.2934 0001695  83.0201 153.1325 15.73036637  3623
STARLINK-37795          
1 69311U 26119R   26165.58335648 -.02004665  00000+0 -29977-1 0  9990
2 69311  97.2845 191.2282 0001235  81.9527 353.3195 15.58490117  3626
STARLINK-37790          
1 69312U 26119S   26165.60049679 -.00598639  00000+0 -34284-2 0  9995
2 69312  97.2820 191.3243 0001907  63.6454 296.5010 15.80267785  3633
STARLINK-37676          
1 69313U 26119T   26165.59839231 -.00013952  00000+0 -72087-4 0  9990
2 69313  97.2819 191.3268 0000860 110.8970 249.2391 15.80855833  3638
STARLINK-37617          
1 69314U 26119U   26165.47095943 -.00536964  00000+0 -30367-2 0  9998
2 69314  97.2817 191.1936 0001182  88.2033 271.9371 15.80394969  3619
STARLINK-37627          
1 69315U 26119V   26165.59720294  .00079323  00000+0  41097-3 0  9998
2 69315  97.2815 191.3284 0001439  89.5390 270.6043 15.80823034  3635
STARLINK-37738          
1 69316U 26119W   26165.59951263 -.00637575  00000+0 -36630-2 0  9998
2 69316  97.2820 191.3249 0001610 215.0942 145.0220 15.80297450  3632
STARLINK-37799          
1 69317U 26119X   26165.59791910  .00032713  00000+0  17052-3 0  9999
2 69317  97.2816 191.3271 0001259  57.5190 302.6200 15.80861993  2385
STARLINK-37802          
1 69318U 26119Y   26165.53260282  .00201230  00000+0  10233-2 0  9992
2 69318  97.2818 191.2638 0000830  96.5244 263.6119 15.80899899  3620
STARLINK-37803          
1 69319U 26119Z   26165.58335648 -.02721565  00000+0 -24868-1 0  9997
2 69319  97.2842 191.3012 0001939 105.6822 147.5222 15.71323196  3582
GUOWANG TEST OBJECT A   
1 69320U 26120A   26158.46264223  .00009002  00000+0  24096-3 0  9996
2 69320  54.9967  71.5399 0009599 294.3963  65.6063 15.38803685  1198
GUOWANG TEST OBJECT B   
1 69321U 26120B   26165.21542075  .00009122  00000+0  24523-3 0  9990
2 69321  54.9983  41.1132 0009706 321.8388  38.1952 15.38651111  2235
GUOWANG TEST OBJECT C   
1 69322U 26120C   26158.91389784  .00016153  00000+0  41736-3 0  9993
2 69322  54.9968  69.4792 0009850 309.3319  50.6835 15.39284097  1266
GUOWANG TEST OBJECT D   
1 69323U 26120D   26164.95209719  .00004341  00000+0  12081-3 0  9991
2 69323  54.9984  42.2612 0010854 335.7492  24.3024 15.38973808  2191
QIANFAN-163             
1 69325U 26121A   26158.95635699  .00000032  00000+0  25988-4 0  9991
2 69325  89.0167 301.4498 0019200 214.2671 145.7248 13.60351284   905
QIANFAN-164             
1 69326U 26121B   26162.41240743  .00000112  00000+0  13228-3 0  9992
2 69326  89.0157 301.0998 0019383 205.3125 154.7084 13.60355109  1373
SZ-22 MODULE            
1 69328U 25272C   26164.78312604  .00021216  00000+0  25736-3 0  9993
2 69328  41.4809 342.8006 0006611  57.2068 302.9407 15.60088365  2796
STARLINK-37733          
1 69329U 26122A   26165.58335648  .00135000  00000+0  69705-3 0  9992
2 69329  97.2842 194.8732 0000592  52.3825  34.3552 15.80741591  2935
STARLINK-37772          
1 69330U 26122B   26165.58335648  .00029256  00000+0  15298-3 0  9997
2 69330  97.2838 194.8858 0001391  88.5699  27.9651 15.80812595  2884
STARLINK-37768          
1 69331U 26122C   26165.58335648  .00146411  00000+0  75430-3 0  9995
2 69331  97.2839 194.8887 0001146 100.7923  25.1353 15.80759189  2881
STARLINK-37833          
1 69332U 26122D   26165.58335648  .00021262  00000+0  11145-3 0  9995
2 69332  97.2836 194.8914 0001100  95.8884  32.8682 15.80821560  2883
STARLINK-37818          
1 69333U 26122E   26165.58335648 -.00052454  00000+0 -27437-3 0  9996
2 69333  97.2836 194.8875 0001400 101.0223  16.7252 15.80846106  2933
STARLINK-37868          
1 69334U 26122F   26165.58335648  .00048864  00000+0  25456-3 0  9994
2 69334  97.2839 194.9040 0000947  99.3316  60.6227 15.80803873  2933
STARLINK-37877          
1 69335U 26122G   26165.58335648 -.00002157  00000+0 -10522-4 0  9991
2 69335  97.2834 194.9036 0000947 112.4337  48.2314 15.80823011  2939
STARLINK-37791          
1 69336U 26122H   26165.58335648 -.00003939  00000+0 -19870-4 0  9996
2 69336  97.2828 194.9078 0000661  53.0008 116.5805 15.80780641  2932
STARLINK-37765          
1 69337U 26122J   26165.58335648 -.00012370  00000+0 -63882-4 0  9998
2 69337  97.2835 194.9086 0000769 102.1308  69.4924 15.80834537  2985
STARLINK-37788          
1 69338U 26122K   26165.58335648  .00038671  00000+0  20180-3 0  9992
2 69338  97.2836 194.9112 0001390 105.4866  70.1136 15.80809231  2935
STARLINK-37743          
1 69339U 26122L   26165.58335648  .00016915  00000+0  88771-4 0  9991
2 69339  97.2836 194.9057 0001469  99.9980  62.2905 15.80841778  2933
STARLINK-37780          
1 69340U 26122M   26165.58335648  .00036797  00000+0  19208-3 0  9991
2 69340  97.2838 194.9076 0001288  93.7785  74.0442 15.80810909  2986
