OBJECT_NAME,OBJECT_ID,EPOCH,MEAN_MOTION,ECCENTRICITY,INCLINATION,RA_OF_ASC_NODE,ARG_OF_PERICENTER,MEAN_ANOMALY,EPHEMERIS_TYPE,CLASSIFICATION_TYPE,NORAD_CAT_ID,ELEMENT_SET_NO,REV_AT_EPOCH,BSTAR,MEAN_MOTION_DOT,MEAN_MOTION_DDOT
STARLINK-37794,2026-119Q,2026-06-14T14:00:01.999872,15.73036637,.00016958,97.2846,191.2934,83.0201,153.1325,0,U,69310,999,362,-.19649663E-1,-.2313304E-1,0
STARLINK-37795,2026-119R,2026-06-14T14:00:01.999872,15.58490117,.00012354,97.2845,191.2282,81.9527,353.3195,0,U,69311,999,362,-.29977266E-1,-.2004665E-1,0
STARLINK-37790,2026-119S,2026-06-14T14:24:42.922656,15.80267785,.00019071,97.2820,191.3243,63.6454,296.5010,0,U,69312,999,363,-.34283984E-2,-.598639E-2,0
STARLINK-37676,2026-119T,2026-06-14T14:21:41.095584,15.80855833,.00008606,97.2819,191.3268,110.8970,249.2391,0,U,69313,999,363,-.72086831E-4,-.13952E-3,0
STARLINK-37617,2026-119U,2026-06-14T11:18:10.894752,15.80394969,.00011823,97.2817,191.1936,88.2033,271.9371,0,U,69314,999,361,-.30366944E-2,-.536964E-2,0
STARLINK-37627,2026-119V,2026-06-14T14:19:58.334016,15.80823034,.00014399,97.2815,191.3284,89.5390,270.6043,0,U,69315,999,363,.41097067E-3,.79323E-3,0
STARLINK-37738,2026-119W,2026-06-14T14:23:17.891232,15.80297450,.00016109,97.2820,191.3249,215.0942,145.0220,0,U,69316,999,363,-.36630205E-2,-.637575E-2,0
STARLINK-37799,2026-119X,2026-06-14T14:21:00.210240,15.80861993,.00012591,97.2816,191.3271,57.5190,302.6200,0,U,69317,999,238,.17052351E-3,.32713E-3,0
STARLINK-37802,2026-119Y,2026-06-14T12:46:56.883648,15.80899899,.00008309,97.2818,191.2638,96.5244,263.6119,0,U,69318,999,362,.10233276E-2,.20123E-2,0
STARLINK-37803,2026-119Z,2026-06-14T14:00:01.999872,15.71323196,.00019397,97.2842,191.3012,105.6822,147.5222,0,U,69319,999,358,-.24868075E-1,-.2721565E-1,0
GUOWANG TEST OBJECT A,2026-120A,2026-06-07T11:06:12.288672,15.38803685,.00095994,54.9967,71.5399,294.3963,65.6063,0,U,69320,999,119,.24095813E-3,.9002E-4,0
GUOWANG TEST OBJECT B,2026-120B,2026-06-14T05:10:12.352800,15.38651111,.00097065,54.9983,41.1132,321.8388,38.1952,0,U,69321,999,223,.2452347E-3,.9122E-4,0
GUOWANG TEST OBJECT C,2026-120C,2026-06-07T21:56:00.773376,15.39284097,.00098504,54.9968,69.4792,309.3319,50.6835,0,U,69322,999,126,.41735581E-3,.16153E-3,0
GUOWANG TEST OBJECT D,2026-120D,2026-06-13T22:51:01.197216,15.38973808,.00108547,54.9984,42.2612,335.7492,24.3024,0,U,69323,999,219,.12081246E-3,.4341E-4,0
QIANFAN-163,2026-121A,2026-06-07T22:57:09.243936,13.60351284,.00192,89.0167,301.4498,214.2671,145.7248,0,U,69325,999,90,.25988E-4,.32E-6,0
QIANFAN-164,2026-121B,2026-06-11T09:53:52.001952,13.60355109,.0019383,89.0157,301.0998,205.3125,154.7084,0,U,69326,999,137,.13228E-3,.112E-5,0
SZ-22 MODULE,2025-272C,2026-06-13T18:47:42.089856,15.60088365,.00066118,41.4809,342.8006,57.2068,302.9407,0,U,69328,999,279,.25736494E-3,.21216E-3,0
STARLINK-37733,2026-122A,2026-06-14T14:00:01.999872,15.80741591,.00005926,97.2842,194.8732,52.3825,34.3552,0,U,69329,999,293,.69705056E-3,.135E-2,0
STARLINK-37772,2026-122B,2026-06-14T14:00:01.999872,15.80812595,.00013919,97.2838,194.8858,88.5699,27.9651,0,U,69330,999,288,.15298453E-3,.29256E-3,0
STARLINK-37768,2026-122C,2026-06-14T14:00:01.999872,15.80759189,.00011463,97.2839,194.8887,100.7923,25.1353,0,U,69331,999,288,.75430352E-3,.146411E-2,0
STARLINK-37833,2026-122D,2026-06-14T14:00:01.999872,15.80821560,.00011007,97.2836,194.8914,95.8884,32.8682,0,U,69332,999,288,.11144551E-3,.21262E-3,0
STARLINK-37818,2026-122E,2026-06-14T14:00:01.999872,15.80846106,.00014006,97.2836,194.8875,101.0223,16.7252,0,U,69333,999,293,-.27436904E-3,-.52454E-3,0
STARLINK-37868,2026-122F,2026-06-14T14:00:01.999872,15.80803873,.00009472,97.2839,194.9040,99.3316,60.6227,0,U,69334,999,293,.25456376E-3,.48864E-3,0
STARLINK-37877,2026-122G,2026-06-14T14:00:01.999872,15.80823011,.00009476,97.2834,194.9036,112.4337,48.2314,0,U,69335,999,293,-.10522129E-4,-.2157E-4,0
STARLINK-37791,2026-122H,2026-06-14T14:00:01.999872,15.80780641,.00006617,97.2828,194.9078,53.0008,116.5805,0,U,69336,999,293,-.19869604E-4,-.3939E-4,0
STARLINK-37765,2026-122J,2026-06-14T14:00:01.999872,15.80834537,.00007691,97.2835,194.9086,102.1308,69.4924,0,U,69337,999,298,-.63881648E-4,-.1237E-3,0
STARLINK-37788,2026-122K,2026-06-14T14:00:01.999872,15.80809231,.00013902,97.2836,194.9112,105.4866,70.1136,0,U,69338,999,293,.20179549E-3,.38671E-3,0
STARLINK-37743,2026-122L,2026-06-14T14:00:01.999872,15.80841778,.00014693,97.2836,194.9057,99.9980,62.2905,0,U,69339,999,293,.88771112E-4,.16915E-3,0
STARLINK-37780,2026-122M,2026-06-14T14:00:01.999872,15.80810909,.00012881,97.2838,194.9076,93.7785,74.0442,0,U,69340,999,298,.19207861E-3,.36797E-3,0
